satname,norad_id,inclination_deg,eccentricity,mean_motion_rev_per_day,perigee_km,apogee_km,l1,l2
STARLINK-1284,45390,53.0535,0.000159,15.12443993,527.6511099291329,529.8474997740759,1 45390U 20019AG  26007.91668980  .00066698  00000+0  37747-2 0  9999,2 45390  53.0535  59.3660 0001590  61.0573 359.9291 15.12443993  5699
STARLINK-1297,45395,53.0549,0.000237,15.10675622,532.5000997454154,535.7765182418789,1 45395U 20019AM  26007.91668980  .00097089  00000+0  57381-2 0  9998,2 45395  53.0549  59.4208 0002370  90.0391 101.3643 15.10675622  5880
STARLINK-1307,45397,53.054,9.68e-05,15.14313819,522.3944973157713,523.7305695454434,1 45397U 20019AP  26007.91668980  .01720917  00000+0  84801-1 0  9990,2 45397  53.0540  59.3185 0000968 129.8723 153.8569 15.14313819  5786
STARLINK-1255,45399,53.0478,0.0004698,15.42037232,436.894308459744,443.30072161007047,1 45399U 20019AR  26007.54482955  .00076602  00000+0  17588-2 0  9990,2 45399  53.0478  34.5367 0004698  41.1123 319.0235 15.42037232320979
STARLINK-1260,45404,53.0541,0.000115,15.06412779,546.3759818405342,547.9688030007919,1 45404U 20019AW  26007.81046150  .00001313  00000+0  10701-3 0  9998,2 45404  53.0541  49.9147 0001150  74.4807 285.6309 15.06412779320682
STARLINK-1263,45405,53.0523,0.0001746,15.06443352,545.8695508283927,548.28783614856,1 45405U 20019AX  26007.59666249  .00010158  00000+0  69905-3 0  9998,2 45405  53.0523  50.8768 0001746  98.7343 261.3843 15.06443352320650
STARLINK-1265,45406,53.0534,0.00015,15.06411961,546.1361026536215,548.2136962234536,1 45406U 20019AY  26007.80309065  .00000839  00000+0  75216-4 0  9991,2 45406  53.0534  49.9492 0001500  72.3007 287.8146 15.06411961320682
STARLINK-1278,45408,53.0498,0.0004095,15.44140238,431.11595330095406,436.69501609592226,1 45408U 20019BA  26007.44378909  .00032042  00000+0  69479-3 0  9990,2 45408  53.0498  64.0915 0004095 291.7659  68.2910 15.44140238320467
STARLINK-1296,45412,53.0532,0.0001474,15.06409753,546.1608745877893,548.2024585306908,1 45412U 20019BE  26007.80677882  .00000730  00000+0  67869-4 0  9998,2 45412  53.0532  49.9306 0001474  80.7973 279.3183 15.06409753320689
STARLINK-1298,45413,53.0432,0.0006425,15.6902005,357.371500224127,366.0321931421149,1 45413U 20019BF  26007.91668980  .00210455  00000+0  17458-2 0  9994,2 45413  53.0432 359.6175 0006425  88.2406  81.1277 15.69020050  5949
STARLINK-1309,45414,53.0538,0.0001172,15.06402437,546.3924389187205,548.0157388699581,1 45414U 20019BG  26007.82152391  .00003481  00000+0  25246-3 0  9993,2 45414  53.0538  49.8676 0001172  94.0422 266.0701 15.06402437320678
STARLINK-1316,45415,53.0562,0.0001646,15.06389886,546.1026385901023,548.3824735399576,1 45415U 20019BH  26007.84734026  .00002810  00000+0  20751-3 0  9998,2 45415  53.0562  49.7493 0001646  89.8869 270.2308 15.06389886320712
STARLINK-1318,45416,53.045,0.0005044,15.75790857,338.9918176184183,345.7714768297383,1 45416U 20019BJ  26007.91668980  .00124986  00000+0  78775-3 0  9990,2 45416  53.0450 347.6130 0005044  76.8000 119.8560 15.75790857  5961
STARLINK-1286,45417,53.0517,0.0001769,15.44320057,432.1717262998909,434.58163984096154,1 45417U 20019BK  26007.47140941  .00023083  00000+0  50067-3 0  9994,2 45417  53.0517  63.6623 0001769 322.7961  37.2921 15.44320057320744
STARLINK-1308,45419,53.0549,0.0001403,15.13364867,524.9785099981627,526.9157960114962,1 45419U 20019BM  26007.91668980  .01671149  00000+0  84791-1 0  9995,2 45419  53.0549  79.3170 0001403 114.8360 139.1401 15.13364867  5838
STARLINK-1329,45531,53.0549,0.0005075,15.44806907,428.48937993655,435.4016136708069,1 45531U 20025A   26007.91668980  .00078712  00000+0  16455-2 0  9996,2 45531  53.0549  12.9217 0005075  39.4440  56.8273 15.44806907  5818
STARLINK-1338,45532,53.0543,0.000242,15.42796305,436.21142846187104,439.510371445449,1 45532U 20025B   26007.84502718  .00085536  00000+0  19118-2 0  9996,2 45532  53.0543  16.0782 0002420  65.6218 294.5039 15.42796305315970
STARLINK-1350,45535,53.0746,0.0002052,15.34410155,461.2693233496848,464.0767917973126,1 45535U 20025E   26007.59750079  .00012971  00000+0  39421-3 0  9999,2 45535  53.0746 319.6800 0002052  95.3194 264.8041 15.34410155316774
STARLINK-1362,45538,53.0545,0.0001241,15.06410087,546.3212109890947,548.0400748280645,1 45538U 20025H   26007.76064976  .00003143  00000+0  22975-3 0  9992,2 45538  53.0545  19.8589 0001241  86.0701 274.0430 15.06410087315910
STARLINK-1368,45540,53.0536,0.0001563,15.06419568,546.0691628798722,548.2340080916947,1 45540U 20025K   26007.76530902  .00002221  00000+0  16788-3 0  9993,2 45540  53.0536  20.1173 0001563  91.2002 268.9166 15.06419568315906
STARLINK-1371,45542,53.0539,0.000222,15.3641303,455.2092847192698,458.24396416852323,1 45542U 20025M   26007.91668980  .02120932  00000+0  52903-1 0  9999,2 45542  53.0539  17.7884 0002220  80.9727 306.7285 15.36413030  5834
STARLINK-1372,45543,53.0556,0.0001427,15.06415487,546.175852454503,548.1523333864234,1 45543U 20025N   26007.44094242  .00002225  00000+0  16815-3 0  9998,2 45543  53.0556  21.5744 0001427  86.3240 273.7912 15.06415487314951
STARLINK-1373,45544,53.0588,0.0001233,15.32378199,467.87484760785355,469.5632823134738,1 45544U 20025P   26007.91668980  .01082404  00000+0  31229-1 0  9999,2 45544  53.0588  18.2351 0001233  84.6215 135.2380 15.32378199  5834
STARLINK-1294,45551,53.0407,0.0003484,15.74817704,342.8075827103339,347.4923690751357,1 45551U 20025W   26007.91668980 -.00024162  00000+0 -15666-3 0  9994,2 45551  53.0407 283.1427 0003484 163.0425   6.0489 15.74817704  6027
STARLINK-1325,45554,53.044,0.0009222,15.90170266,295.6457413705848,307.9662282117333,1 45554U 20025Z   26007.91668980  .00262885  36421-4  85727-3 0  9997,2 45554  53.0440 271.9904 0009222 132.3645  80.0498 15.90170266  6048
STARLINK-1327,45555,53.0551,0.0001433,15.4061973,443.30146124353087,445.2567657016516,1 45555U 20025AA  26007.91668980  .01743402  00000+0  38077-1 0  9991,2 45555  53.0551 357.3065 0001433 103.8644  21.0000 15.40619730  5780
STARLINK-1356,45564,53.0566,0.0001011,15.06425084,546.4345351909551,547.8348251246816,1 45564U 20025AK  26007.70078891  .00003982  00000+0  28588-3 0  9993,2 45564  53.0566   0.4079 0001011 113.3329 246.7766 15.06425084316177
STARLINK-1357,45565,53.0602,0.0004881,15.44623843,429.159295438124,435.80782322814593,1 45565U 20025AL  26007.91668980  .00108092  00000+0  22620-2 0  9999,2 45565  53.0602 329.2959 0004881  73.4558 105.2062 15.44623843  5826
STARLINK-1361,45567,53.0556,0.0001736,15.06406214,545.9902757852715,548.3947501921812,1 45567U 20025AN  26007.45385951  .00002759  00000+0  20399-3 0  9999,2 45567  53.0556   1.5170 0001736  95.8051 264.3136 15.06406214316141
STARLINK-1363,45568,53.0515,0.0008363,15.53689004,400.29266686143,411.6397578944534,1 45568U 20025AP  26007.60721974  .00030738  00000+0  47732-3 0  9994,2 45568  53.0515 338.5188 0008363  15.5549 344.5716 15.53689004316476
STARLINK-1366,45569,53.0504,0.0010793,15.52966985,400.7444473078358,415.3931511460469,1 45569U 20025AQ  26007.91668980  .00153129  00000+0  23721-2 0  9997,2 45569  53.0504 337.6122 0010793  43.1027 254.8574 15.52966985  5847
STARLINK-1376,45570,53.0894,0.0001874,15.14341643,521.6847306869549,524.2712685888182,1 45570U 20025AR  26007.91668980  .01564403  00000+0  76546-1 0  9993,2 45570  53.0894 359.3231 0001874  65.8293   9.1866 15.14341643  5840
STARLINK-1320,45572,53.0551,0.0007226,15.55202369,396.66541919852716,406.46344370726365,1 45572U 20025AT  26007.18556587  .00041413  00000+0  60557-3 0  9990,2 45572  53.0551 286.1383 0007226 123.0217 237.1488 15.55202369317190
STARLINK-1321,45573,53.0548,0.0001097,15.38735602,449.09815450174665,450.5962142317967,1 45573U 20025AU  26007.91668980  .00051890  00000+0  13364-2 0  9996,2 45573  53.0548 347.1569 0001097  92.3315  86.6553 15.38735602  5846
STARLINK-1328,45576,53.0448,0.0003519,16.09527394,245.80830435369353,250.47187817052418,1 45576U 20025AX  26007.03190561  .00776524  33816-3  83151-3 0  9992,2 45576  53.0448 291.9806 0003519 193.7852 166.3086 16.09527394317086
STARLINK-1331,45578,53.0564,0.0001456,15.06400395,546.2020167466635,548.2186778942032,1 45578U 20025AZ  26007.67962822 -.00000485  00000+0 -13658-4 0  9990,2 45578  53.0564 350.5053 0001456  79.0591 281.0562 15.06400395316324
STARLINK-1333,45580,53.0736,0.000238,15.11864203,528.8707632056921,532.1592815683471,1 45580U 20025BB  26007.91668980  .00111458  00000+0  63590-2 0  9997,2 45580  53.0736 359.3968 0002380  91.7105 101.7732 15.11864203  5835
STARLINK-1335,45581,53.0544,0.0001431,15.06406977,546.199160202008,548.1811888393559,1 45581U 20025BC  26007.82334920 -.00012354  00000+0 -81173-3 0  9997,2 45581  53.0544 349.8581 0001431  99.7989 260.3161 15.06406977316334
STARLINK-1337,45582,53.0562,0.0001603,15.06427,546.0186879539315,548.2389281719952,1 45582U 20025BD  26007.64643413  .00035345  00000+0  23782-2 0  9992,2 45582  53.0562 350.6536 0001603 112.8295 247.2863 15.06427000316303
STARLINK-1347,45586,53.0526,0.0005454,15.4328051,432.71847600518413,440.15181129947996,1 45586U 20025BH  26007.91668980  .00075573  00000+0  16645-2 0  9999,2 45586  53.0526 320.2534 0005454  83.4140 200.7908 15.43280510  5929
STARLINK-1364,45589,53.0565,0.0001339,15.06409156,546.2561958446686,548.1107966735663,1 45589U 20025BL  26007.65012995  .00008789  00000+0  60803-3 0  9993,2 45589  53.0565 350.6377 0001339  92.7464 267.3678 15.06409156316305
STARLINK-1365,45590,53.0561,0.0001335,15.06424753,546.2111706924488,548.0602185019061,1 45590U 20025BM  26007.73210548  .00004705  00000+0  33432-3 0  9990,2 45590  53.0561  20.2651 0001335  86.8669 273.2472 15.06424753315919
STARLINK-1443,45660,53.0545,0.0001141,15.06410624,546.3888185445094,547.9691756550483,1 45660U 20035D   26007.65104472  .00002505  00000+0  18696-3 0  9999,2 45660  53.0545 340.6312 0001141  83.8453 276.2666 15.06410624309536
